NORAD_CAT_ID,OBJECT_NAME,OBJECT_TYPE,EPOCH,MEAN_MOTION,ECCENTRICITY,INCLINATION,RA_OF_ASC_NODE,ARG_OF_PERICENTER,MEAN_ANOMALY,BSTAR,MEAN_MOTION_DOT,MEAN_MOTION_DDOT,TLE_LINE0,TLE_LINE1,TLE_LINE2,SEMIMAJOR_AXIS,PERIOD,APOGEE,PERIGEE,DECAYED
53009.0,STARLINK-4277,PAYLOAD,2023-04-16 20:25:33,15.08840277,0.0001261,53.2166,152.9429,84.7639,275.3497,2.7509e-05,1.5e-06,0.0,0 STARLINK-4277,1 53009U 22076Z   23106.85108094  .00000150  00000-0  27509-4 0  9994,2 53009  53.2166 152.9429 0001261  84.7639 275.3497 15.08840277 43287,6917.88,95.438,540.617,538.872,0.0
53009.0,STARLINK-4277,PAYLOAD,2023-04-17 09:08:38,15.08835055,0.0001364,53.2165,150.5645,78.3783,281.7362,9.6936e-06,-1.34e-06,0.0,0 STARLINK-4277,1 53009U 22076Z   23107.38100641 -.00000134  00000-0  96936-5 0  9997,2 53009  53.2165 150.5645 0001364  78.3783 281.7362 15.08835055 43834,6917.896,95.438,540.704,538.817,0.0
53009.0,STARLINK-4277,PAYLOAD,2023-04-18 08:59:25,15.08843344,0.0001419,53.2162,146.1023,90.2822,269.8333,0.0001074,1.422e-05,0.0,0 STARLINK-4277,1 53009U 22076Z   23108.37460268  .00001422  00000-0  10740-3 0  9998,2 53009  53.2162 146.1023 0001419  90.2822 269.8333 15.08843344 43510,6917.87,95.437,540.717,538.754,0.0
53009.0,STARLINK-4277,PAYLOAD,2023-04-19 12:00:58,15.08844022,0.0001449,53.2159,141.046,98.8806,261.235,0.00013064,1.792e-05,0.0,0 STARLINK-4277,1 53009U 22076Z   23109.50068223  .00001792  00000-0  13064-3 0  9991,2 53009  53.2159 141.0460 0001449  98.8806 261.2350 15.08844022 44154,6917.868,95.437,540.735,538.731,0.0
53009.0,STARLINK-4277,PAYLOAD,2023-04-20 02:19:27,15.0883836,0.0001576,53.2154,138.3696,105.0733,255.0433,4.1537e-05,3.73e-06,0.0,0 STARLINK-4277,1 53009U 22076Z   23110.09684762  .00000373  00000-0  41537-4 0  9990,2 53009  53.2154 138.3696 0001576 105.0733 255.0433 15.08838360 44241,6917.885,95.438,540.841,538.66,0.0
53009.0,STARLINK-4277,PAYLOAD,2023-04-20 11:51:46,15.08842132,0.0001372,53.2162,136.5867,96.8363,263.2785,6.3318e-05,7.2e-06,0.0,0 STARLINK-4277,1 53009U 22076Z   23110.49428506  .00000720  00000-0  63318-4 0  9993,2 53009  53.2162 136.5867 0001372  96.8363 263.2785 15.08842132 43837,6917.874,95.437,540.688,538.79,0.0
53009.0,STARLINK-4277,PAYLOAD,2023-04-20 18:13:19,15.08839392,0.0001306,53.2166,135.3951,82.0229,278.0911,-1.7211e-05,-5.62e-06,0.0,0 STARLINK-4277,1 53009U 22076Z   23110.75924823 -.00000562  00000-0 -17211-4 0  9992,2 53009  53.2166 135.3951 0001306  82.0229 278.0911 15.08839392 43870,6917.882,95.438,540.651,538.844,0.0
53009.0,STARLINK-4277,PAYLOAD,2023-04-21 02:10:15,15.08833679,0.0001348,53.2161,133.909,100.5715,259.5429,-2.9174e-06,-3.34e-06,0.0,0 STARLINK-4277,1 53009U 22076Z   23111.09045307 -.00000334  00000-0 -29174-5 0  9990,2 53009  53.2161 133.9090 0001348 100.5715 259.5429 15.08833679 44393,6917.9,95.438,540.697,538.832,0.0
53009.0,STARLINK-4277,PAYLOAD,2023-04-21 11:42:33,15.08834719,0.0001275,53.2149,132.1258,92.0563,268.0575,1.3945e-05,-6.6e-07,0.0,0 STARLINK-4277,1 53009U 22076Z   23111.48789347 -.00000066  00000-0  13945-4 0  9991,2 53009  53.2149 132.1258 0001275  92.0563 268.0575 15.08834719 43988,6917.897,95.438,540.644,538.879,0.0
53009.0,STARLINK-4277,PAYLOAD,2023-04-21 18:04:06,15.08840515,0.0001229,53.2156,130.9366,96.3956,263.7176,1.4296e-05,-6e-07,0.0,0 STARLINK-4277,1 53009U 22076Z   23111.75284963 -.00000060  00000-0  14296-4 0  9999,2 53009  53.2156 130.9366 0001229  96.3956 263.7176 15.08840515 44020,6917.879,95.438,540.594,538.894,0.0
53009.0,STARLINK-4277,PAYLOAD,2023-04-22 02:01:01,15.08835514,0.0001549,53.2157,129.4493,105.4871,254.6292,0.00017407,2.483e-05,0.0,0 STARLINK-4277,1 53009U 22076Z   23112.08404987  .00002483  00000-0  17407-3 0  9992,2 53009  53.2157 129.4493 0001549 105.4871 254.6292 15.08835514 44546,6917.894,95.438,540.831,538.688,0.0
53009.0,STARLINK-4277,PAYLOAD,2023-04-22 17:54:54,15.08831875,0.0001115,53.2159,126.4764,85.5811,274.5309,-5.8031e-06,-3.8e-06,0.0,0 STARLINK-4277,1 53009U 22076Z   23112.74645927 -.00000380  00000-0 -58031-5 0  9992,2 53009  53.2159 126.4764 0001115  85.5811 274.5309 15.08831875 44172,6917.905,95.438,540.542,538.999,0.0
53009.0,STARLINK-4277,PAYLOAD,2023-04-23 09:48:47,15.08818595,0.0001283,53.2168,123.5025,87.112,273.0019,-5.2086e-05,-1.116e-05,0.0,0 STARLINK-4277,1 53009U 22076Z   23113.40887763 -.00001116  00000-0 -52086-4 0  9993,2 53009  53.2168 123.5025 0001283  87.1120 273.0019 15.08818595 44274,6917.946,95.439,540.698,538.923,0.0
53009.0,STARLINK-4277,PAYLOAD,2023-04-23 12:59:33,15.08819803,0.0001348,53.2167,122.9078,86.7704,273.3442,-4.1787e-05,-9.52e-06,0.0,0 STARLINK-4277,1 53009U 22076Z   23113.54135838 -.00000952  00000-0 -41787-4 0  9990,2 53009  53.2167 122.9078 0001348  86.7704 273.3442 15.08819803 44769,6917.942,95.439,540.74,538.875,0.0
53009.0,STARLINK-4277,PAYLOAD,2023-04-24 06:28:45,15.08851641,0.0001232,53.2169,119.6365,91.8972,268.2161,0.00016,2.26e-05,0.0,0 STARLINK-4277,1 53009U 22076Z   23114.26997475  .00002260  00000-0  16000-3 0  9994,2 53009  53.2169 119.6365 0001232  91.8972 268.2161 15.08851641 44878,6917.845,95.437,540.562,538.858,0.0
53009.0,STARLINK-4277,PAYLOAD,2023-04-24 17:36:26,15.08862765,0.000113,53.2149,117.5581,83.3759,276.7361,0.00022581,3.31e-05,0.0,0 STARLINK-4277,1 53009U 22076Z   23114.73364327  .00003310  00000-0  22581-3 0  9998,2 53009  53.2149 117.5581 0001130  83.3759 276.7361 15.08862765 44942,6917.811,95.436,540.458,538.894,0.0
53009.0,STARLINK-4277,PAYLOAD,2023-04-25 09:30:19,15.08843043,0.0001575,53.214,114.5823,87.6601,272.4572,0.00021369,3.115e-05,0.0,0 STARLINK-4277,1 53009U 22076Z   23115.39605981  .00003115  00000-0  21369-3 0  9991,2 53009  53.2140 114.5823 0001575  87.6601 272.4572 15.08843043 45042,6917.871,95.437,540.826,538.647,0.0
53009.0,STARLINK-4277,PAYLOAD,2023-04-26 09:21:08,15.08828319,0.0001524,53.2162,110.12,93.4507,266.666,-0.00014962,-2.668e-05,0.0,0 STARLINK-4277,1 53009U 22076Z   23116.38968047 -.00002668  00000-0 -14962-3 0  9991,2 53009  53.2162 110.1200 0001524  93.4507 266.6660 15.08828319 44727,6917.916,95.438,540.835,538.727,0.0
53009.0,STARLINK-4277,PAYLOAD,2023-04-27 04:25:44,15.08839085,0.0001265,53.2149,106.5549,74.7365,285.3767,1.4961e-05,-5e-07,0.0,0 STARLINK-4277,1 53009U 22076Z   23117.18454856 -.00000050  00000-0  14961-4 0  9990,2 53009  53.2149 106.5549 0001265  74.7365 285.3767 15.08839085 45317,6917.883,95.438,540.623,538.873,0.0
53009.0,STARLINK-4277,PAYLOAD,2023-04-27 09:11:54,15.08839793,0.0001583,53.2156,105.6585,108.0366,252.0798,0.00010863,1.441e-05,0.0,0 STARLINK-4277,1 53009U 22076Z   23117.38326473  .00001441  00000-0  10863-3 0  9995,2 53009  53.2156 105.6585 0001583 108.0366 252.0798 15.08839793 44871,6917.881,95.438,540.841,538.651,0.0
53009.0,STARLINK-4277,PAYLOAD,2023-04-28 04:16:31,15.08845384,0.0001261,53.2159,102.0934,85.8829,274.2308,0.00028491,4.25e-05,0.0,0 STARLINK-4277,1 53009U 22076Z   23118.17814128  .00004250  00000-0  28491-3 0  9999,2 53009  53.2159 102.0934 0001261  85.8829 274.2308 15.08845384 45464,6917.864,95.437,540.601,538.857,0.0
53009.0,STARLINK-4277,PAYLOAD,2023-04-28 10:38:03,15.08846026,0.0001394,53.2161,100.9019,98.9129,261.2021,0.00030009,4.492e-05,0.0,0 STARLINK-4277,1 53009U 22076Z   23118.44310027  .00004492  00000-0  30009-3 0  9994,2 53009  53.2161 100.9019 0001394  98.9129 261.2021 15.08846026 45038,6917.862,95.437,540.691,538.763,0.0
53009.0,STARLINK-4277,PAYLOAD,2023-04-28 15:24:15,15.08821821,0.0001679,53.2166,100.0107,91.8917,268.2267,7.6087e-05,9.23e-06,0.0,0 STARLINK-4277,1 53009U 22076Z   23118.64184346  .00000923  00000-0  76087-4 0  9991,2 53009  53.2166 100.0107 0001679  91.8917 268.2267 15.08821821 45535,6917.936,95.439,540.962,538.639,0.0
53009.0,STARLINK-4277,PAYLOAD,2023-04-29 05:42:42,15.08836803,0.0001322,53.216,97.3346,96.5944,263.5199,-0.00016653,-2.937e-05,0.0,0 STARLINK-4277,1 53009U 22076Z   23119.23798883 -.00002937  00000-0 -16653-3 0  9995,2 53009  53.2160  97.3346 0001322  96.5944 263.5199 15.08836803 45627,6917.89,95.438,540.67,538.841,0.0
53009.0,STARLINK-4277,PAYLOAD,2023-04-29 08:53:28,15.08837691,0.0001468,53.217,96.7409,96.5175,263.5985,-0.00017747,-3.111e-05,0.0,0 STARLINK-4277,1 53009U 22076Z   23119.37046878 -.00003111  00000-0 -17747-3 0  9990,2 53009  53.2170  96.7409 0001468  96.5175 263.5985 15.08837691 45177,6917.887,95.438,540.768,538.737,0.0
53009.0,STARLINK-4277,PAYLOAD,2023-04-30 08:44:15,15.08848094,0.0001666,53.2156,92.2791,119.2234,240.8925,0.00050398,7.744e-05,0.0,0 STARLINK-4277,1 53009U 22076Z   23120.36406461  .00007744  00000-0  50398-3 0  9992,2 53009  53.2156  92.2791 0001666 119.2234 240.8925 15.08848094 45794,6917.856,95.437,540.873,538.568,0.0
53009.0,STARLINK-4277,PAYLOAD,2023-05-01 05:24:15,15.08843584,0.0001256,53.2152,88.4124,102.5304,257.5829,0.0001706,2.429e-05,0.0,0 STARLINK-4277,1 53009U 22076Z   23121.22518496  .00002429  00000-0  17060-3 0  9994,2 53009  53.2152  88.4124 0001256 102.5304 257.5829 15.08843584 45927,6917.869,95.437,540.603,538.866,0.0
53009.0,STARLINK-4277,PAYLOAD,2023-05-01 06:59:39,15.08845393,0.0001246,53.215,88.1148,101.767,258.3462,0.00019774,2.861e-05,0.0,0 STARLINK-4277,1 53009U 22076Z   23121.29142424  .00002861  00000-0  19774-3 0  9999,2 53009  53.2150  88.1148 0001246 101.7670 258.3462 15.08845393 45465,6917.864,95.437,540.591,538.867,0.0
53009.0,STARLINK-4277,PAYLOAD,2023-05-02 06:50:25,15.08852272,0.0001416,53.2168,83.6528,94.987,265.1284,0.00014284,1.987e-05,0.0,0 STARLINK-4277,1 53009U 22076Z   23122.28501890  .00001987  00000-0  14284-3 0  9994,2 53009  53.2168  83.6528 0001416  94.9870 265.1284 15.08852272 46081,6917.843,95.437,540.687,538.728,0.0
53009.0,STARLINK-4277,PAYLOAD,2023-05-02 14:47:21,15.0884639,0.0001456,53.2169,82.1674,83.3151,276.8007,5.7806e-05,6.32e-06,0.0,0 STARLINK-4277,1 53009U 22076Z   23122.61622191  .00000632  00000-0  57806-4 0  9993,2 53009  53.2169  82.1674 0001456  83.3151 276.8007 15.08846390 46138,6917.861,95.437,540.733,538.719,0.0
